STARLINK-35158          
1 66381U 25257B   26159.70785286  .00019629  00000+0  67302-3 0  9998
2 66381  53.1601 154.6240 0001527  79.2646 280.8526 15.30204075 33669
STARLINK-35639          
1 66382U 25257C   26159.31279892  .00013222  00000+0  45776-3 0  9991
2 66382  53.1599 156.4214 0001365  94.7185 265.3972 15.30199576 33603
STARLINK-35690          
1 66383U 25257D   26159.20990750  .00009641  00000+0  29619-3 0  9991
2 66383  53.1576 155.0783 0001301 105.2189 254.8958 15.34391743 33619
STARLINK-35662          
1 66384U 25257E   26159.71934647  .00020974  00000+0  71809-3 0  9991
2 66384  53.1594 153.9854 0001255  47.4032 312.7074 15.30209013 33671
STARLINK-35659          
1 66385U 25257F   26159.21411451  .00018741  00000+0  56444-3 0  9997
2 66385  53.1576 155.1027 0001104  99.4109 260.7018 15.34398067 33619
STARLINK-35651          
1 66386U 25257G   26159.71723271  .00020122  00000+0  68902-3 0  9997
2 66386  53.1586 153.9681 0000095 162.1756 197.9248 15.30228876 33675
STARLINK-35661          
1 66387U 25257H   26159.13845997  .00022197  00000+0  66614-3 0  9996
2 66387  53.1584 155.3431 0001421  96.7490 263.3675 15.34399846 33609
STARLINK-35647          
1 66388U 25257J   26159.71407488  .00022003  00000+0  75250-3 0  9992
2 66388  53.1598 153.9563 0001945  45.4752 314.6407 15.30212903 33661
STARLINK-35694          
1 66389U 25257K   26159.71829236  .00025953  00000+0  88520-3 0  9993
2 66389  53.1588 153.9726 0001495  81.6044 278.5127 15.30204126 33674
STARLINK-35665          
1 66390U 25257L   26159.20737947  .00016044  00000+0  55266-3 0  9998
2 66390  53.1581 156.4551 0001144  74.7331 285.3797 15.30199371 33692
STARLINK-35656          
1 66391U 25257M   26159.21751969  .00013699  00000+0  47383-3 0  9994
2 66391  53.1572 159.3650 0001251  89.1078 271.0066 15.30197747 33654
STARLINK-35671          
1 66392U 25257N   26159.71090547  .00018875  00000+0  64780-3 0  9999
2 66392  53.1598 153.9273 0001041  80.1308 279.9810 15.30199416 33679
STARLINK-35652          
1 66393U 25257P   26159.31384631  .00014350  00000+0  49550-3 0  9998
2 66393  53.1600 156.4231 0001575 104.3922 255.7254 15.30212492 33606
STARLINK-35672          
1 66394U 25257Q   26159.30029718  .00010567  00000+0  32354-3 0  9990
2 66394  53.1582 154.9246 0001370  94.0628 266.0531 15.34389956 33625
STARLINK-35681          
1 66395U 25257R   26159.20527009  .00018445  00000+0  63325-3 0  9991
2 66395  53.1577 156.4573 0001170  79.9437 280.1696 15.30203818 33513
STARLINK-35669          
1 66396U 25257S   26159.21200844  .00019507  00000+0  58691-3 0  9998
2 66396  53.1571 155.0891 0001188 116.9889 243.1235 15.34402963 33613
STARLINK-35510          
1 66397U 25257T   26159.71196374  .00020011  00000+0  68604-3 0  9993
2 66397  53.1595 153.9331 0001235  78.1344 281.9796 15.30194888 33672
STARLINK-35642          
1 66398U 25257U   26159.71425506  .00025465  00000+0  76205-3 0  9990
2 66398  53.1597 153.2460 0001619  34.5655 325.5453 15.34408277 33688
STARLINK-35657          
1 66399U 25257V   26159.25198736  .00021138  00000+0  63504-3 0  9993
2 66399  53.1600 155.3313 0001427 101.9852 258.1311 15.34397809 33603
STARLINK-35667          
1 66400U 25257W   26159.30450192  .00054539  00000+0  16125-2 0  9996
2 66400  53.1593 154.9476 0000922  90.9393 269.1715 15.34421203 33626
STARLINK-35668          
1 66401U 25257X   26159.30239706  .00007814  00000+0  24222-3 0  9995
2 66401  53.1591 154.9341 0001325  88.9936 271.1219 15.34393539 33626
STARLINK-35602          
1 66403U 25257Z   26159.42636671  .00016544  00000+0  50006-3 0  9991
2 66403  53.1573 154.2869 0001251  94.6726 265.4419 15.34376479 33649
STARLINK-35691          
1 66404U 25257AA  26159.22674946  .00014787  00000+0  44818-3 0  9998
2 66404  53.1565 155.1752 0001107 104.4834 255.6292 15.34380786 33615
STARLINK-35683          
1 66405U 25257AB  26159.44528312 -.00015946  00000+0 -46209-3 0  9994
2 66405  53.1579 154.3988 0002509  31.7989 328.3165 15.34375665 33575
STARLINK-34840          
1 66406U 25257AC  26159.22042757  .00015863  00000+0  47970-3 0  9997
2 66406  53.1580 155.1220 0001172  96.8192 263.2944 15.34394896 33556
STARLINK-35686          
1 66407U 25257AD  26159.21831375  .00009866  00000+0  30252-3 0  9990
2 66407  53.1576 155.1133 0001111  73.9072 286.2053 15.34425128 33617
STARLINK-35679          
1 66408U 25257AE  26159.22254081  .00011516  00000+0  35165-3 0  9998
2 66408  53.1577 155.1400 0001465 100.4166 259.7001 15.34381591 33611
CHUTIAN-2 A             
1 66409U 25256A   26159.19894444  .00000510  00000+0  14224-3 0  9992
2 66409  98.2499 225.5644 0013634   5.4685 354.6656 14.50195114 30594
CHUTIAN-2 B             
1 66410U 25256B   26159.73415788  .00000498  00000+0  13932-3 0  9994
2 66410  98.2537 226.1878 0013956   6.2907 353.8460 14.50188200 30679
HULIANWANG DIGUI-96     
1 66412U 25258A   26159.71024181 -.00000090  00000+0  73243-4 0  9990
2 66412  50.0057 326.0401 0000962 108.9104 251.1872 13.29324876 28601
