OBJECT_NAME,OBJECT_ID,EPOCH,MEAN_MOTION,ECCENTRICITY,INCLINATION,RA_OF_ASC_NODE,ARG_OF_PERICENTER,MEAN_ANOMALY,EPHEMERIS_TYPE,CLASSIFICATION_TYPE,NORAD_CAT_ID,ELEMENT_SET_NO,REV_AT_EPOCH,BSTAR,MEAN_MOTION_DOT,MEAN_MOTION_DDOT
STARLINK-35158,2025-257B,2026-06-08T16:59:18.487104,15.30204075,.0001527,53.1601,154.6240,79.2646,280.8526,0,U,66381,999,3366,.67302E-3,.19629E-3,0
STARLINK-35639,2025-257C,2026-06-08T07:30:25.826688,15.30199576,.00013657,53.1599,156.4214,94.7185,265.3972,0,U,66382,999,3360,.45776371E-3,.13222E-3,0
STARLINK-35690,2025-257D,2026-06-08T05:02:16.008000,15.34391743,.0001301,53.1576,155.0783,105.2189,254.8958,0,U,66383,999,3361,.29619E-3,.9641E-4,0
STARLINK-35662,2025-257E,2026-06-08T17:15:51.535008,15.30209013,.0001255,53.1594,153.9854,47.4032,312.7074,0,U,66384,999,3367,.71809E-3,.20974E-3,0
STARLINK-35659,2025-257F,2026-06-08T05:08:19.493664,15.34398067,.0001104,53.1576,155.1027,99.4109,260.7018,0,U,66385,999,3361,.56444E-3,.18741E-3,0
STARLINK-35651,2025-257G,2026-06-08T17:12:48.906144,15.30228876,.0000095,53.1586,153.9681,162.1756,197.9248,0,U,66386,999,3367,.68902E-3,.20122E-3,0
STARLINK-35661,2025-257H,2026-06-08T03:19:22.941408,15.34399846,.00014214,53.1584,155.3431,96.7490,263.3675,0,U,66387,999,3360,.66613642E-3,.22197E-3,0
STARLINK-35647,2025-257J,2026-06-08T17:08:16.069632,15.30212903,.0001945,53.1598,153.9563,45.4752,314.6407,0,U,66388,999,3366,.7525E-3,.22003E-3,0
STARLINK-35694,2025-257K,2026-06-08T17:14:20.459904,15.30204126,.0001495,53.1588,153.9726,81.6044,278.5127,0,U,66389,999,3367,.8852E-3,.25953E-3,0
STARLINK-35665,2025-257L,2026-06-08T04:58:37.586208,15.30199371,.0001144,53.1581,156.4551,74.7331,285.3797,0,U,66390,999,3369,.55266E-3,.16044E-3,0
STARLINK-35656,2025-257M,2026-06-08T05:13:13.701216,15.30197747,.0001251,53.1572,159.3650,89.1078,271.0066,0,U,66391,999,3365,.47383E-3,.13699E-3,0
STARLINK-35671,2025-257N,2026-06-08T17:03:42.232608,15.30199416,.0001041,53.1598,153.9273,80.1308,279.9810,0,U,66392,999,3367,.6478E-3,.18875E-3,0
STARLINK-35652,2025-257P,2026-06-08T07:31:56.321184,15.30212492,.00015754,53.1600,156.4231,104.3922,255.7254,0,U,66393,999,3360,.49550043E-3,.1435E-3,0
STARLINK-35672,2025-257Q,2026-06-08T07:12:25.676352,15.34389956,.000137,53.1582,154.9246,94.0628,266.0531,0,U,66394,999,3362,.32354406E-3,.10567E-3,0
STARLINK-35681,2025-257R,2026-06-08T04:55:35.335776,15.30203818,.000117,53.1577,156.4573,79.9437,280.1696,0,U,66395,999,3351,.63325E-3,.18445E-3,0
STARLINK-35669,2025-257S,2026-06-08T05:05:17.529216,15.34402963,.0001188,53.1571,155.0891,116.9889,243.1235,0,U,66396,999,3361,.58691E-3,.19507E-3,0
STARLINK-35510,2025-257T,2026-06-08T17:05:13.667136,15.30194888,.0001235,53.1595,153.9331,78.1344,281.9796,0,U,66397,999,3367,.68604E-3,.20011E-3,0
STARLINK-35642,2025-257U,2026-06-08T17:08:31.637184,15.34408277,.0001619,53.1597,153.2460,34.5655,325.5453,0,U,66398,999,3368,.76205E-3,.25465E-3,0
STARLINK-35657,2025-257V,2026-06-08T06:02:51.707904,15.34397809,.0001427,53.1600,155.3313,101.9852,258.1311,0,U,66399,999,3360,.63503615E-3,.21138E-3,0
STARLINK-35667,2025-257W,2026-06-08T07:18:28.965888,15.34421203,.00009223,53.1593,154.9476,90.9393,269.1715,0,U,66400,999,3362,.16125207E-2,.54539E-3,0
STARLINK-35668,2025-257X,2026-06-08T07:15:27.105984,15.34393539,.00013255,53.1591,154.9341,88.9936,271.1219,0,U,66401,999,3362,.24222064E-3,.7814E-4,0
STARLINK-35602,2025-257Z,2026-06-08T10:13:58.083744,15.34376479,.00012515,53.1573,154.2869,94.6726,265.4419,0,U,66403,999,3364,.50005652E-3,.16544E-3,0
STARLINK-35691,2025-257AA,2026-06-08T05:26:31.153344,15.34380786,.0001107,53.1565,155.1752,104.4834,255.6292,0,U,66404,999,3361,.44818E-3,.14787E-3,0
STARLINK-35683,2025-257AB,2026-06-08T10:41:12.461568,15.34375665,.00025093,53.1579,154.3988,31.7989,328.3165,0,U,66405,999,3357,-.46208665E-3,-.15946E-3,0
STARLINK-34840,2025-257AC,2026-06-08T05:17:24.942048,15.34394896,.0001172,53.1580,155.1220,96.8192,263.2944,0,U,66406,999,3355,.4797E-3,.15863E-3,0
STARLINK-35686,2025-257AD,2026-06-08T05:14:22.308000,15.34425128,.0001111,53.1576,155.1133,73.9072,286.2053,0,U,66407,999,3361,.30252E-3,.9866E-4,0
STARLINK-35679,2025-257AE,2026-06-08T05:20:27.525984,15.34381591,.0001465,53.1577,155.1400,100.4166,259.7001,0,U,66408,999,3361,.35165E-3,.11516E-3,0
CHUTIAN-2 A,2025-256A,2026-06-08T04:46:28.799616,14.50195114,.0013634,98.2499,225.5644,5.4685,354.6656,0,U,66409,999,3059,.1422359E-3,.51E-5,0
CHUTIAN-2 B,2025-256B,2026-06-08T17:37:11.240832,14.50188200,.0013956,98.2537,226.1878,6.2907,353.8460,0,U,66410,999,3067,.13932E-3,.498E-5,0
HULIANWANG DIGUI-96,2025-258A,2026-06-08T17:02:44.892384,13.29324876,.0000962,50.0057,326.0401,108.9104,251.1872,0,U,66412,999,2860,.73243E-4,-.9E-6,0
